STARLINK-11333 [DTC]    
1 62273U 24237G   25224.34849514  .00171797  00000+0  13122-2 0  9993
2 62273  43.0049 238.8726 0001336 263.0115  97.0601 15.70888543 40128
STARLINK-11504 [DTC]    
1 62274U 24237H   25224.39614738  .00245044  00000+0  18520-2 0  9991
2 62274  43.0043 238.3578 0002902 279.4823  80.5717 15.70908351 40080
STARLINK-11495 [DTC]    
1 62275U 24237J   25224.04650692  .00235155  00000+0  17727-2 0  9993
2 62275  42.9985 240.9143 0000917 219.3372 140.7429 15.71001278 40012
STARLINK-11498 [DTC]    
1 62276U 24237K   25224.31663873  .00173655  00000+0  13195-2 0  9990
2 62276  42.9996 238.6154 0000567 252.2167 107.8638 15.71006262 40115
STARLINK-11484 [DTC]    
1 62277U 24237L   25224.32725682  .00156146  00000+0  11957-2 0  9999
2 62277  42.9997 238.6965 0000568 213.5686 146.5145 15.70878996 40117
STARLINK-11487 [DTC]    
1 62278U 24237M   25224.09947137  .00192872  00000+0  14648-2 0  9991
2 62278  42.9985 240.4435 0001279 223.5333 136.5434 15.70956497 40087
STARLINK-11499 [DTC]    
1 62279U 24237N   25224.11100308  .00299848  00000+0  22571-2 0  9991
2 62279  43.0004 240.5356 0002440 288.3644  71.6958 15.70838489 40035
STARLINK-33548          
1 62280U 24237P   25223.97050312  .00020992  00000+0  77009-3 0  9994
2 62280  42.9996 309.8835 0002131 273.0966  86.9641 15.27583234 39247
STARLINK-33544          
1 62281U 24237Q   25224.28585092  .00031743  00000+0  11577-2 0  9991
2 62281  43.0003 319.2002 0001496 291.5884  68.4808 15.27590928 39166
STARLINK-33560          
1 62282U 24237R   25224.52940760  .00022756  00000+0  83316-3 0  9991
2 62282  43.0005 317.5846 0001378 260.2023  99.8673 15.27609334 39084
STARLINK-33547          
1 62283U 24237S   25224.29358372  .00020245  00000+0  74294-3 0  9994
2 62283  42.9999 308.0030 0001491 175.5364 184.5501 15.27591630 39291
STARLINK-33563          
1 62284U 24237T   25224.27428993  .00025074  00000+0  91695-3 0  9999
2 62284  43.0027 319.1109 0002739 273.6521  86.4017 15.27601524 39169
STARLINK-33550          
1 62285U 24237U   25224.26401812  .00034934  00000+0  12715-2 0  9990
2 62285  43.0055 319.0336 0001593 268.4180  91.6489 15.27618282 39162
STARLINK-33564          
1 62286U 24237V   25224.27814257  .00026484  00000+0  96795-3 0  9995
2 62286  43.0033 319.1437 0002565 285.9347  74.1222 15.27595978 39168
STARLINK-33546          
1 62287U 24237W   25223.55118707  .00018860  00000+0  69329-3 0  9995
2 62287  42.9994 323.1407 0001374 249.6901 110.3803 15.27572174 38963
STARLINK-33565          
1 62288U 24237X   25224.52557035  .00024483  00000+0  89531-3 0  9990
2 62288  43.0006 306.3097 0001719 272.7366  87.3289 15.27614997 39336
