[{"OBJECT_NAME":"STARLINK-11333 [DTC]","OBJECT_ID":"2024-237G","EPOCH":"2025-08-12T08:21:49.980096","MEAN_MOTION":15.70888543,"ECCENTRICITY":0.0001336,"INCLINATION":43.0049,"RA_OF_ASC_NODE":238.8726,"ARG_OF_PERICENTER":263.0115,"MEAN_ANOMALY":97.0601,"EPHEMERIS_TYPE":0,"CLASSIFICATION_TYPE":"U","NORAD_CAT_ID":62273,"ELEMENT_SET_NO":999,"REV_AT_EPOCH":4012,"BSTAR":0.0013122,"MEAN_MOTION_DOT":0.00171797,"MEAN_MOTION_DDOT":0},{"OBJECT_NAME":"STARLINK-11504 [DTC]","OBJECT_ID":"2024-237H","EPOCH":"2025-08-12T09:30:27.133632","MEAN_MOTION":15.70908351,"ECCENTRICITY":0.0002902,"INCLINATION":43.0043,"RA_OF_ASC_NODE":238.3578,"ARG_OF_PERICENTER":279.4823,"MEAN_ANOMALY":80.5717,"EPHEMERIS_TYPE":0,"CLASSIFICATION_TYPE":"U","NORAD_CAT_ID":62274,"ELEMENT_SET_NO":999,"REV_AT_EPOCH":4008,"BSTAR":0.001852,"MEAN_MOTION_DOT":0.00245044,"MEAN_MOTION_DDOT":0},{"OBJECT_NAME":"STARLINK-11495 [DTC]","OBJECT_ID":"2024-237J","EPOCH":"2025-08-12T01:06:58.197888","MEAN_MOTION":15.71001278,"ECCENTRICITY":9.17e-5,"INCLINATION":42.9985,"RA_OF_ASC_NODE":240.9143,"ARG_OF_PERICENTER":219.3372,"MEAN_ANOMALY":140.7429,"EPHEMERIS_TYPE":0,"CLASSIFICATION_TYPE":"U","NORAD_CAT_ID":62275,"ELEMENT_SET_NO":999,"REV_AT_EPOCH":4001,"BSTAR":0.0017727,"MEAN_MOTION_DOT":0.00235155,"MEAN_MOTION_DDOT":0},{"OBJECT_NAME":"STARLINK-11498 [DTC]","OBJECT_ID":"2024-237K","EPOCH":"2025-08-12T07:35:57.586272","MEAN_MOTION":15.71006262,"ECCENTRICITY":5.67e-5,"INCLINATION":42.9996,"RA_OF_ASC_NODE":238.6154,"ARG_OF_PERICENTER":252.2167,"MEAN_ANOMALY":107.8638,"EPHEMERIS_TYPE":0,"CLASSIFICATION_TYPE":"U","NORAD_CAT_ID":62276,"ELEMENT_SET_NO":999,"REV_AT_EPOCH":4011,"BSTAR":0.0013195,"MEAN_MOTION_DOT":0.00173655,"MEAN_MOTION_DDOT":0},{"OBJECT_NAME":"STARLINK-11484 [DTC]","OBJECT_ID":"2024-237L","EPOCH":"2025-08-12T07:51:14.989248","MEAN_MOTION":15.70878996,"ECCENTRICITY":5.68e-5,"INCLINATION":42.9997,"RA_OF_ASC_NODE":238.6965,"ARG_OF_PERICENTER":213.5686,"MEAN_ANOMALY":146.5145,"EPHEMERIS_TYPE":0,"CLASSIFICATION_TYPE":"U","NORAD_CAT_ID":62277,"ELEMENT_SET_NO":999,"REV_AT_EPOCH":4011,"BSTAR":0.0011957,"MEAN_MOTION_DOT":0.00156146,"MEAN_MOTION_DDOT":0},{"OBJECT_NAME":"STARLINK-11487 [DTC]","OBJECT_ID":"2024-237M","EPOCH":"2025-08-12T02:23:14.326368","MEAN_MOTION":15.70956497,"ECCENTRICITY":0.0001279,"INCLINATION":42.9985,"RA_OF_ASC_NODE":240.4435,"ARG_OF_PERICENTER":223.5333,"MEAN_ANOMALY":136.5434,"EPHEMERIS_TYPE":0,"CLASSIFICATION_TYPE":"U","NORAD_CAT_ID":62278,"ELEMENT_SET_NO":999,"REV_AT_EPOCH":4008,"BSTAR":0.0014648,"MEAN_MOTION_DOT":0.00192872,"MEAN_MOTION_DDOT":0},{"OBJECT_NAME":"STARLINK-11499 [DTC]","OBJECT_ID":"2024-237N","EPOCH":"2025-08-12T02:39:50.666112","MEAN_MOTION":15.70838489,"ECCENTRICITY":0.000244,"INCLINATION":43.0004,"RA_OF_ASC_NODE":240.5356,"ARG_OF_PERICENTER":288.3644,"MEAN_ANOMALY":71.6958,"EPHEMERIS_TYPE":0,"CLASSIFICATION_TYPE":"U","NORAD_CAT_ID":62279,"ELEMENT_SET_NO":999,"REV_AT_EPOCH":4003,"BSTAR":0.0022571,"MEAN_MOTION_DOT":0.00299848,"MEAN_MOTION_DDOT":0},{"OBJECT_NAME":"STARLINK-33548","OBJECT_ID":"2024-237P","EPOCH":"2025-08-11T23:17:31.469568","MEAN_MOTION":15.27583234,"ECCENTRICITY":0.0002131,"INCLINATION":42.9996,"RA_OF_ASC_NODE":309.8835,"ARG_OF_PERICENTER":273.0966,"MEAN_ANOMALY":86.9641,"EPHEMERIS_TYPE":0,"CLASSIFICATION_TYPE":"U","NORAD_CAT_ID":62280,"ELEMENT_SET_NO":999,"REV_AT_EPOCH":3924,"BSTAR":0.00077009,"MEAN_MOTION_DOT":0.00020992,"MEAN_MOTION_DDOT":0},{"OBJECT_NAME":"STARLINK-33544","OBJECT_ID":"2024-237Q","EPOCH":"2025-08-12T06:51:37.519488","MEAN_MOTION":15.27590928,"ECCENTRICITY":0.0001496,"INCLINATION":43.0003,"RA_OF_ASC_NODE":319.2002,"ARG_OF_PERICENTER":291.5884,"MEAN_ANOMALY":68.4808,"EPHEMERIS_TYPE":0,"CLASSIFICATION_TYPE":"U","NORAD_CAT_ID":62281,"ELEMENT_SET_NO":999,"REV_AT_EPOCH":3916,"BSTAR":0.0011577,"MEAN_MOTION_DOT":0.00031743,"MEAN_MOTION_DDOT":0},{"OBJECT_NAME":"STARLINK-33560","OBJECT_ID":"2024-237R","EPOCH":"2025-08-12T12:42:20.816640","MEAN_MOTION":15.27609334,"ECCENTRICITY":0.0001378,"INCLINATION":43.0005,"RA_OF_ASC_NODE":317.5846,"ARG_OF_PERICENTER":260.2023,"MEAN_ANOMALY":99.8673,"EPHEMERIS_TYPE":0,"CLASSIFICATION_TYPE":"U","NORAD_CAT_ID":62282,"ELEMENT_SET_NO":999,"REV_AT_EPOCH":3908,"BSTAR":0.00083316,"MEAN_MOTION_DOT":0.00022756,"MEAN_MOTION_DDOT":0},{"OBJECT_NAME":"STARLINK-33547","OBJECT_ID":"2024-237S","EPOCH":"2025-08-12T07:02:45.633408","MEAN_MOTION":15.2759163,"ECCENTRICITY":0.0001491,"INCLINATION":42.9999,"RA_OF_ASC_NODE":308.003,"ARG_OF_PERICENTER":175.5364,"MEAN_ANOMALY":184.5501,"EPHEMERIS_TYPE":0,"CLASSIFICATION_TYPE":"U","NORAD_CAT_ID":62283,"ELEMENT_SET_NO":999,"REV_AT_EPOCH":3929,"BSTAR":0.00074294,"MEAN_MOTION_DOT":0.00020245,"MEAN_MOTION_DDOT":0},{"OBJECT_NAME":"STARLINK-33563","OBJECT_ID":"2024-237T","EPOCH":"2025-08-12T06:34:58.649952","MEAN_MOTION":15.27601524,"ECCENTRICITY":0.0002739,"INCLINATION":43.0027,"RA_OF_ASC_NODE":319.1109,"ARG_OF_PERICENTER":273.6521,"MEAN_ANOMALY":86.4017,"EPHEMERIS_TYPE":0,"CLASSIFICATION_TYPE":"U","NORAD_CAT_ID":62284,"ELEMENT_SET_NO":999,"REV_AT_EPOCH":3916,"BSTAR":0.00091695,"MEAN_MOTION_DOT":0.00025074,"MEAN_MOTION_DDOT":0},{"OBJECT_NAME":"STARLINK-33550","OBJECT_ID":"2024-237U","EPOCH":"2025-08-12T06:20:11.165568","MEAN_MOTION":15.27618282,"ECCENTRICITY":0.0001593,"INCLINATION":43.0055,"RA_OF_ASC_NODE":319.0336,"ARG_OF_PERICENTER":268.418,"MEAN_ANOMALY":91.6489,"EPHEMERIS_TYPE":0,"CLASSIFICATION_TYPE":"U","NORAD_CAT_ID":62285,"ELEMENT_SET_NO":999,"REV_AT_EPOCH":3916,"BSTAR":0.0012715,"MEAN_MOTION_DOT":0.00034934,"MEAN_MOTION_DDOT":0},{"OBJECT_NAME":"STARLINK-33564","OBJECT_ID":"2024-237V","EPOCH":"2025-08-12T06:40:31.518048","MEAN_MOTION":15.27595978,"ECCENTRICITY":0.0002565,"INCLINATION":43.0033,"RA_OF_ASC_NODE":319.1437,"ARG_OF_PERICENTER":285.9347,"MEAN_ANOMALY":74.1222,"EPHEMERIS_TYPE":0,"CLASSIFICATION_TYPE":"U","NORAD_CAT_ID":62286,"ELEMENT_SET_NO":999,"REV_AT_EPOCH":3916,"BSTAR":0.00096795,"MEAN_MOTION_DOT":0.00026484,"MEAN_MOTION_DDOT":0},{"OBJECT_NAME":"STARLINK-33546","OBJECT_ID":"2024-237W","EPOCH":"2025-08-11T13:13:42.562848","MEAN_MOTION":15.27572174,"ECCENTRICITY":0.0001374,"INCLINATION":42.9994,"RA_OF_ASC_NODE":323.1407,"ARG_OF_PERICENTER":249.6901,"MEAN_ANOMALY":110.3803,"EPHEMERIS_TYPE":0,"CLASSIFICATION_TYPE":"U","NORAD_CAT_ID":62287,"ELEMENT_SET_NO":999,"REV_AT_EPOCH":3896,"BSTAR":0.00069329,"MEAN_MOTION_DOT":0.0001886,"MEAN_MOTION_DDOT":0},{"OBJECT_NAME":"STARLINK-33565","OBJECT_ID":"2024-237X","EPOCH":"2025-08-12T12:36:49.278240","MEAN_MOTION":15.27614997,"ECCENTRICITY":0.0001719,"INCLINATION":43.0006,"RA_OF_ASC_NODE":306.3097,"ARG_OF_PERICENTER":272.7366,"MEAN_ANOMALY":87.3289,"EPHEMERIS_TYPE":0,"CLASSIFICATION_TYPE":"U","NORAD_CAT_ID":62288,"ELEMENT_SET_NO":999,"REV_AT_EPOCH":3933,"BSTAR":0.00089531,"MEAN_MOTION_DOT":0.00024483,"MEAN_MOTION_DDOT":0}]
